A/2019 G2,e,159.2214,208.1729,82.6360,412.6891,0.0001176,0.99443413,0.0000,12/07.7794/2019,2000,g 16.5,2.0
# From MPEC 2022-VC5
A/2019 G3,e,156.8039,49.9127,161.8569,17.17668,0.0138451,0.83450015,25.9792,01/24.0/2024,2000,g 17.1,2.0
# From MPC114607
P/2019 GG21 (PANSTARRS),e,6.0868,340.5604,208.5816,7.467888,0.0482956,0.47177982,83.0770,01/24.0/2024,2000,g 12.0,4.0
# From MPEC 2022-M21
C/2019 H1 (NEOWISE),e,104.4037,269.2937,19.3092,241.2803,0.0002630,0.99236105,0.0000,04/27.7912/2019,2000,g 15.5,4.0
# From MPEC 2023-A50
C/2019 J1 (Lemmon),e,24.5325,98.1955,167.6891,67.64800,0.0017714,0.96325726,3.1053,01/24.0/2024,2000,g 12.0,4.0
# From MPEC 2021-R75
C/2019 J2 (Palomar),e,105.2578,25.5451,98.6506,160.9237,0.0004828,0.98930779,0.0000,07/20.4531/2019,2000,g 13.0,4.0
# From MPC117071
C/2019 J3 (ATLAS),h,08/02.4720/2019,131.3227,270.6320,16.5752,1.000448,2.367525,2000,13.5,4.0
# From MPEC 2022-M21
C/2019 JU6 (ATLAS),h,06/02.3913/2019,148.3282,21.7586,94.9425,1.000074,2.040187,2000,14.5,4.0
# From MPEC 2022-O08
C/2019 K1 (ATLAS),e,87.0274,73.3186,265.7393,5627,0.0000023,0.99964178,0.0000,02/12.2408/2020,2000,g 10.0,4.0
# From MPC119997
C/2019 K4 (Ye),e,105.2966,180.1835,139.9430,1475,0.0000174,0.99845965,0.0000,06/15.3782/2019,2000,g 12.5,4.0
# From MPEC 2021-P47
C/2019 K5 (Young),e,15.3125,177.1951,175.1395,169.6163,0.0004462,0.98793246,0.0000,06/22.6607/2019,2000,g 13.0,4.0
# From MPEC 2021-P47
C/2019 K6 (PANSTARRS),e,132.3797,43.0017,187.5331,1263,0.0000219,0.99689638,0.0000,05/19.6447/2020,2000,g 11.5,4.0
# From MPEC 2023-R20
C/2019 K7 (Smith),h,06/17.6363/2020,103.5151,307.9924,27.4067,1.000958,4.477997,2000,6.0,4.0
# From MPEC 2021-R75
C/2019 K8 (ATLAS),e,93.1061,291.0208,85.3617,2205,0.0000095,0.99855114,0.0000,07/21.3888/2019,2000,g 11.5,4.0
# From MPEC 2023-A50
C/2019 L1 (PANSTARRS),e,9.9758,254.4289,50.0586,9.834731,0.0319566,0.70489900,52.0349,01/24.0/2024,2000,g 13.5,4.0
# From MPC115886
C/2019 L2 (NEOWISE),e,152.2007,12.5549,18.8620,25.09606,0.0078396,0.93521477,13.7783,01/24.0/2024,2000,g 16.0,4.0
# From MPEC 2023-XP6
P/2019 LD2 (ATLAS),e,11.6088,179.4831,118.5819,5.203229,0.0830414,0.12695525,118.9634,01/24.0/2024,2000,g  8.5,4.0
# From MPEC 2024-B57
C/2019 L3 (ATLAS),h,01/09.7927/2022,48.3451,290.7555,171.6521,1.002450,3.554918,2000,4.5,4.0
# From MPEC 2020-K19
P/2019 LM4 (Palomar),e,36.4164,72.8392,68.2754,5.704966,0.0723310,0.58525067,121.5759,01/24.0/2024,2000,g  9.5,4.0
# From MPC118095
C/2019 LB7 (Kleyna),e,164.2894,3.9114,336.6498,34.81693,0.0047975,0.92835081,8.4656,01/24.0/2024,2000,g 17.0,4.0
# From MPEC 2022-O08
P/2019 M2 (ATLAS),e,12.2688,307.5888,332.5536,3.029713,0.1868968,0.64728583,313.6171,01/24.0/2024,2000,g 21.2,4.0
# From MPC118095
C/2019 M3 (ATLAS),e,99.5563,154.9640,87.9143,5039,0.0000028,0.99951896,0.0000,12/31.4884/2018,2000,g 12.2,4.0
# From MPEC 2023-JA2
C/2019 M4 (TESS),h,09/11.7827/2019,65.6786,52.6492,260.3716,1.002703,9.189712,2000,5.0,4.0
# From MPEC 2023-C45
C/2019 N1 (ATLAS),e,82.4447,13.5627,193.3856,1228,0.0000229,0.99861177,0.0000,11/30.9887/2020,2000,g  7.5,4.0
# From MPEC 2023-CD8
A/2019 N2,e,89.3574,276.1710,347.1663,1467,0.0000175,0.99867352,0.0000,08/22.6760/2019,2000,g 12.5,2.0
# From MPEC 2022-A21
C/2019 NJ3 (Lemmon),h,10/22.7525/2020,99.3955,142.4813,246.8948,1.001941,4.363471,2000,9.0,4.0
# From MPEC 2023-SQ0
A/2019 O2,e,93.3122,48.2578,129.6148,58.26559,0.0022161,0.83382071,0.6477,01/24.0/2024,2000,g  9.5,2.0
# From MPEC 2024-B57
C/2019 O3 (Palomar),h,03/09.5930/2021,89.8128,300.4435,60.1321,1.004250,8.821361,2000,3.5,4.0
# From MPEC 2021-P47
A/2019 O4,e,115.0743,354.9279,61.8720,33.25080,0.0051404,0.89032737,7.4183,01/24.0/2024,2000,g 15.5,2.0
# From MPEC 2023-A50
C/2019 Q1 (Lemmon),h,07/21.2302/2020,155.7313,42.4565,56.2330,1.001473,5.004714,2000,8.5,4.0
# From MPC117072
A/2019 Q2,e,159.0179,188.0351,176.4431,58.29072,0.0022146,0.97832013,0.0000,07/22.4409/2019,2000,g 18.0,2.0
# From MPC117072
P/2019 S2 (PANSTARRS),e,10.4650,93.1868,217.0943,4.744703,0.0953653,0.20517057,171.5214,01/24.0/2024,2000,g 13.5,4.0
# From MPEC 2022-CN4
P/2019 S3 (PANSTARRS),e,8.6941,150.1674,213.0590,3.415243,0.1561607,0.47104449,251.4722,01/24.0/2024,2000,g 18.3,4.0
# From MPEC 2021-S45
C/2019 S4 (Lemmon),e,92.1023,63.1578,71.3717,238.9302,0.0002669,0.98559426,0.0000,04/08.3724/2020,2000,g 11.0,4.0
# From MPEC 2023-N01
A/2019 T1,e,120.8653,6.9442,91.0551,38.83205,0.0040730,0.88978889,4.4967,01/24.0/2024,2000,g 13.0,2.0
# From MPEC 2023-R20
C/2019 T2 (Lemmon),e,111.4465,155.6549,239.4266,5011,0.0000028,0.99947208,0.0000,04/22.6433/2021,2000,g  9.0,4.0
# From MPEC 2023-UR6
C/2019 T3 (ATLAS),e,121.8406,139.5326,112.4582,3396,0.0000050,0.99824698,0.0000,03/04.3029/2021,2000,g  6.8,4.0
# From MPEC 2024-B57
C/2019 T4 (ATLAS),e,53.6302,199.9357,351.1400,907.1285,0.0000361,0.99532509,0.0000,06/08.7706/2022,2000,g  5.0,4.0
# From MPEC 2021-P47
P/2019 T5 (ATLAS),e,33.4913,247.6144,189.5801,8.000460,0.0435544,0.80976175,71.2350,01/24.0/2024,2000,g 15.0,4.0
# From MPEC 2021-P47
P/2019 T6 (PANSTARRS),e,18.6983,71.2504,329.0011,5.439510,0.0776899,0.62303859,119.4142,01/24.0/2024,2000,g 15.5,4.0
# From MPC118096
P/2019 U4 (PANSTARRS),e,11.6985,200.0197,181.0374,3.519842,0.1492517,0.47599096,236.8304,01/24.0/2024,2000,g 19.0,4.0
# From MPEC 2024-B57
C/2019 U5 (PANSTARRS),h,03/29.7362/2023,113.5157,2.6339,181.4752,1.001073,3.623970,2000,4.5,4.0
# From MPEC 2022-H04
C/2019 U6 (Lemmon),e,60.9671,235.7863,329.5155,322.9676,0.0001698,0.99717750,0.0000,06/18.2980/2020,2000,g 10.0,4.0
# From MPEC 2022-N37
C/2019 V1 (Borisov),e,61.9288,83.1525,51.1701,1743,0.0000135,0.99822523,0.0000,07/16.7101/2020,2000,g 11.0,4.0
# From MPEC 2022-L66
P/2019 V2 (Groeller),e,11.8076,189.1776,335.6699,7.496516,0.0480192,0.33126820,57.3427,01/24.0/2024,2000,g 10.0,4.0
# From MPEC 2023-A50
P/2019 W1 (PANSTARRS),e,23.4751,35.3763,18.7786,4.548880,0.1015892,0.26727120,174.7166,01/24.0/2024,2000,g 12.9,4.0
# From MPEC 2021-P47
P/2019 X1 (Pruyne),e,10.2503,43.6795,36.8395,6.175574,0.0642226,0.30389657,105.7094,01/24.0/2024,2000,g 10.4,4.0
# From MPEC 2020-C98
P/2019 X2 (Pan-STARRS),e,15.8951,250.8395,213.4515,3.636093,0.1421515,0.50003239,214.0834,01/24.0/2024,2000,g 18.0,4.0
# From MPC119999
C/2019 Y1 (ATLAS),e,73.3775,31.5404,57.9125,87.11924,0.0012121,0.99049405,0.0000,03/16.3724/2020,2000,g 13.7,4.0
# From MPEC 2020-C98
P/2019 Y3 (Catalina),e,24.6024,139.3055,2.5818,3.014155,0.1883457,0.69114467,283.8706,01/24.0/2024,2000,g 18.5,4.0
# From MPEC 2024-A43
C/2019 Y4 (ATLAS),e,45.1191,120.7081,177.4454,355.2443,0.0001472,0.99927918,0.0000,05/30.6263/2020,2000,g 11.8,6.0
# From MPEC 2020-L06
C/2019 Y4-A (ATLAS),h,05/30.6600/2020,45.5596,121.0715,177.2792,1.001412,0.254227,2000,11.6,6.0
# From MPEC 2023-J29
C/2019 Y4-B (ATLAS),h,05/30.6346/2020,45.2492,120.8149,177.3898,1.000009,0.255540,2000,12.1,6.0
# From MPEC 2020-L06
C/2019 Y4-C (ATLAS),h,05/30.6127/2020,45.3423,120.7984,177.3124,1.002138,0.255300,2000,12.7,6.0
# From MPEC 2020-L06
C/2019 Y4-D (ATLAS),e,45.3895,121.1685,177.4514,68.22716,0.0017489,0.99626816,0.0000,05/30.7352/2020,2000,g 12.5,6.0
# From MPEC 2023-A50
C/2019 Y5 (PANSTARRS),e,82.7618,51.7508,303.5953,726.2123,0.0000504,0.99321945,0.0000,08/17.5749/2019,2000,g 11.0,4.0
# From MPEC 2023-A50
A/2020 A1,e,149.0343,119.1575,302.4522,25.55968,0.0076273,0.93478817,11.5496,01/24.0/2024,2000,g 18.0,2.0
# From MPEC 2022-YN2
C/2020 A2 (Iwamoto),e,120.5802,286.2576,68.0504,1233,0.0000228,0.99921037,0.0000,01/08.2955/2020,2000,g 13.5,4.0
# From MPEC 2023-A50
C/2020 A3 (ATLAS),h,06/28.6238/2019,146.6513,120.8048,268.3217,1.000328,5.756726,2000,8.0,4.0
# From MPEC 2022-P91
P/2020 A4 (PANSTARRS-Lemmon),e,24.9922,312.3539,144.7870,8.195837,0.0420063,0.65426893,63.9562,01/24.0/2024,2000,g 15.0,4.0
# From MPEC 2020-N08
A/2020 B1,e,18.5228,309.9177,154.7417,51.58604,0.0026601,0.96628782,3.9616,01/24.0/2024,2000,g 21.0,2.0
# From MPEC 2020-HN5
C/2020 B2 (Lemmon),e,55.7527,354.2766,143.5972,67.67161,0.0017705,0.95922707,2.5819,01/24.0/2024,2000,g 10.0,4.0
# From MPEC 2022-N37
C/2020 B3 (Rankin),e,20.7086,185.8289,324.8859,942.5246,0.0000341,0.99646412,0.0000,10/19.7055/2019,2000,g 13.0,4.0
# From MPEC 2023-KD6
P/2020 B4 (Sheppard),e,11.6078,185.9754,342.0031,7.967714,0.0438231,0.19208809,34.9114,01/24.0/2024,2000,g 10.5,4.0
# From MPEC 2024-B57
C/2020 F2 (ATLAS),h,07/14.1308/2022,163.5893,250.3000,48.2996,1.004831,8.815548,2000,4.5,4.0
# From MPEC 2021-O56
C/2020 F3 (NEOWISE),e,129.1386,61.0900,37.3884,374.9779,0.0001357,0.99921321,0.0000,07/04.0778/2020,2000,g  7.5,5.2
# From MPEC 2024-B57
C/2020 F5 (MASTER),e,52.2078,350.5023,310.6777,171.4270,0.0004391,0.97476435,0.0000,03/17.1155/2021,2000,g  6.5,3.2
# From MPEC 2020-L06
C/2020 F6 (PANSTARRS),e,174.5831,207.8973,344.4816,382.2935,0.0001319,0.99083943,0.0000,04/11.4975/2020,2000,g 14.5,2.8
# From MPEC 2024-A43
C/2020 F7 (Lemmon),e,93.9565,321.8553,227.9492,558.8280,0.0000746,0.99045772,0.0000,11/13.6391/2021,2000,g  7.0,4.0
# From MPEC 2023-J29
C/2020 F8 (SWAN),h,05/26.9482/2020,110.5889,259.8406,68.0756,1.000151,0.429980,2000,10.0,4.0
# From MPEC 2020-L06
P/2020 G1 (Pimentel),e,18.5103,240.1084,207.6170,3.607850,0.1438240,0.86061320,202.3501,01/24.0/2024,2000,g 17.0,4.0
# From MPEC 2022-YB4
C/2020 H2 (Pruyne),e,124.8527,277.6698,26.6371,186.1340,0.0003881,0.99554070,0.0000,04/27.7402/2020,2000,g 14.0,3.2
# From MPEC 2020-HM1
C/2020 H3 (Wierzchos),p,06/05.7162/2020,62.5292,30.4456,2.300288,270.6227,2000,13.5,4.0
# From MPEC 2020-L06
C/2020 H4 (Leonard),e,84.4980,307.6047,117.5168,47.82154,0.0029804,0.98066476,0.0000,08/29.6045/2020,2000,g 15.0,3.2
# From MPEC 2023-VM5
C/2020 H5 (Robinson),e,70.2544,210.6271,326.3055,4374,0.0000034,0.99786466,0.0000,12/10.3041/2020,2000,g  5.0,4.0
# From MPEC 2024-AF0
C/2020 H6 (ATLAS),e,79.9781,213.7192,20.2657,3858,0.0000041,0.99878147,0.0000,09/30.3293/2021,2000,g  8.0,3.2
# From MPEC 2020-KB7
C/2020 H7 (Lemmon),e,135.9235,323.5194,82.6780,1405,0.0000187,0.99685380,0.0000,06/02.9510/2020,2000,g 11.0,4.0
# From MPEC 2021-N06
